BEIDOU 3 (C01)          
1 36287U 10001A   21292.61299398 -.00000287  00000-0  00000-0 0  9999
2 36287   1.6875  41.5518 0002830  78.9886 268.8273  1.00267836 43093
BEIDOU 5 (C06)          
1 36828U 10036A   21292.15255576 -.00000113  00000-0  00000-0 0  9995
2 36828  54.1804 178.4514 0023226 178.1712 193.1906  1.00267731 41161
BEIDOU 6 (C04)          
1 37210U 10057A   21292.58035274 -.00000119  00000-0  00000-0 0  9998
2 37210   0.7547  39.1165 0004445 144.9103 213.1517  1.00272491 40226
BEIDOU 7 (C07)          
1 37256U 10068A   21292.22576287 -.00000200  00000-0  00000-0 0  9996
2 37256  50.6434 292.5246 0017558 190.7274  94.7190  1.00269447 39727
BEIDOU 8 (C08)          
1 37384U 11013A   21292.61165949 -.00000187  00000-0  00000-0 0  9995
2 37384  59.9492  56.6578 0019352 182.1558 115.9387  1.00273282 38608
BEIDOU 9 (C09)          
1 37763U 11038A   21292.49590613 -.00000069  00000-0  00000-0 0  9998
2 37763  54.4670 180.9103 0086529 226.5223 253.9778  1.00284675 37585
BEIDOU 10 (C10)         
1 37948U 11073A   21292.46346406 -.00000151  00000-0  00000-0 0  9990
2 37948  50.7533 292.1475 0078896 217.9864 140.4532  1.00265140 36334
BEIDOU 11 (C05)         
1 38091U 12008A   21292.53156659  .00000050  00000-0  00000-0 0  9993
2 38091   1.8209  70.4741 0002899 317.0502 250.8609  1.00276092 35412
BEIDOU 12 (C11)         
1 38250U 12018A   21292.47994309 -.00000108  00000-0  00000-0 0  9991
2 38250  56.7439   1.5195 0023660 245.6630  42.7645  1.86234308 64595
BEIDOU 13 (C12)         
1 38251U 12018B   21292.41091102 -.00000108  00000-0  00000-0 0  9995
2 38251  56.6639   0.8633 0014617 245.2346  41.2377  1.86234074 64594
BEIDOU 15 (C14)         
1 38775U 12050B   21292.54306669  .00000055  00000-0  00000-0 0  9993
2 38775  55.2656 119.7995 0012164 329.6123 242.6644  1.86231313 61971
BEIDOU 16 (C02)         
1 38953U 12059A   21292.53271529 -.00000182  00000-0  00000-0 0  9997
2 38953   1.3932  84.1550 0009353 283.2529 296.6835  1.00270166 32986
BEIDOU 17 (C31)         
1 40549U 15019A   21291.78197515 -.00000151  00000-0  00000-0 0  9994
2 40549  52.2969 315.5617 0038172 189.7652 256.9900  1.00294759 24019
BEIDOU 18 (C57)         
1 40748U 15037A   21292.25125578 -.00000109  00000-0  00000-0 0  9991
2 40748  55.9229 359.8810 0001031   0.7370  88.4631  1.86233404 42426
BEIDOU 19 (C58)         
1 40749U 15037B   21292.42294093 -.00000108  00000-0  00000-0 0  9999
2 40749  55.9257 359.8642 0003804 287.7465  52.0972  1.86232060 42414
BEIDOU 20 (C18)         
1 40938U 15053A   21292.40607645 -.00000131  00000-0  00000-0 0  9992
2 40938  51.8775 278.6395 0047788 196.4166 152.8238  1.00255973 22281
BEIDOU IGSO-6 (C13)     
1 41434U 16021A   21292.54480743 -.00000160  00000-0  00000-0 0  9995
2 41434  57.7489  55.3424 0043821 210.9382  52.6489  1.00288642 20416
BEIDOU-2 G7 (C03)       
1 41586U 16037A   21292.55674253 -.00000360  00000-0  00000-0 0  9994
2 41586   1.9663  69.4169 0007792  11.8165 258.0256  1.00273113 19728
BEIDOU-3 M1 (C19)       
1 43001U 17069A   21292.26521716  .00000058  00000-0  00000-0 0  9990
2 43001  55.4206 119.7764 0007445 292.3481 249.6934  1.86231805 26904
BEIDOU-3 M2 (C20)       
1 43002U 17069B   21292.19805919  .00000058  00000-0  00000-0 0  9993
2 43002  55.4200 119.8141 0006188 324.1951 216.1119  1.86231436 26890
BEIDOU-3 M3 (C27)       
1 43107U 18003A   21292.30486172 -.00000110  00000-0  00000-0 0  9997
2 43107  55.3681   0.9028 0003590  61.5912 356.2518  1.86232508 25669
BEIDOU-3 M4 (C28)       
1 43108U 18003B   21292.32613350 -.00000110  00000-0  00000-0 0  9990
2 43108  55.3621   0.8920 0004007 233.0816 244.2052  1.86232536 25667
BEIDOU-3 M5 (C21)       
1 43207U 18018A   21291.52453614  .00000063  00000-0  00000-0 0  9998
2 43207  55.3787 119.9248 0004621   2.9110 357.1569  1.86231512 25038
BEIDOU-3 M6 (C22)       
1 43208U 18018B   21291.59126290  .00000062  00000-0  00000-0 0  9992
2 43208  55.3781 119.9270 0005539 309.4102  50.6077  1.86231655 25030
BEIDOU-3 M7 (C29)       
1 43245U 18029A   21292.46754157 -.00000108  00000-0  00000-0 0  9993
2 43245  55.2941 358.6841 0001116 208.3329 228.8527  1.86232622 24201
BEIDOU-3 M8 (C30)       
1 43246U 18029B   21292.28035499 -.00000109  00000-0  10000-3 0  9990
2 43246  55.2908 358.7197 0002952 341.3018  16.7020  1.86232984 24182
BEIDOU IGSO-7 (C16)     
1 43539U 18057A   21292.60257543 -.00000114  00000-0  00000-0 0  9990
2 43539  55.0615 177.8461 0040741 223.1775 317.1856  1.00284110 12095
BEIDOU-3 M9 (C23)       
1 43581U 18062A   21292.28499846 -.00000046  00000-0  00000-0 0  9995
2 43581  54.3571 240.3483 0005756 279.4530 292.0139  1.86231868 21939
BEIDOU-3 M10 (C24)      
1 43582U 18062B   21292.49063762 -.00000044  00000-0  00000-0 0  9991
2 43582  54.3568 240.3313 0005887 343.4877  97.3296  1.86232233 21947
BEIDOU-3 M11 (C25)      
1 43602U 18067A   21292.33545142 -.00000045  00000-0  00000-0 0  9990
2 43602  54.4353 238.9291 0007166 354.6961  24.0306  1.86231534 21437
BEIDOU-3 M12 (C26)      
1 43603U 18067B   21292.22087956 -.00000046  00000-0  00000-0 0  9994
2 43603  54.4325 238.9011 0004646 340.2444 232.0972  1.86231432 21442
BEIDOU-3 M13 (C32)      
1 43622U 18072A   21292.35448218  .00000057  00000-0  00000-0 0  9998
2 43622  55.3449 119.4601 0004130 287.4474  44.4427  1.86231814 20950
BEIDOU-3 M14 (C33)      
1 43623U 18072B   21292.21913708  .00000058  00000-0  00000-0 0  9996
2 43623  55.3480 119.4550 0002893 336.6850 354.6978  1.86231837 20950
BEIDOU-3 M15 (C34)      
1 43647U 18078A   21292.53941766 -.00000109  00000-0  10000-3 0  9990
2 43647  55.1880 358.8597 0005218 352.9521  88.3918  1.86232808 20479
BEIDOU-3 M16 (C35)      
1 43648U 18078B   21292.58000212 -.00000109  00000-0  00000-0 0  9994
2 43648  55.1838 358.8642 0003060   6.6347  10.1561  1.86232295 20495
BEIDOU-3 G1 (C59)       
1 43683U 18085A   21292.47218587 -.00000285  00000-0  00000-0 0  9990
2 43683   0.8982 209.8644 0004685  29.5360  98.8177  1.00273943 10992
BEIDOU-3 M17 (C36)      
1 43706U 18093A   21292.17086515 -.00000047  00000-0  00000-0 0  9992
2 43706  54.4381 240.2204 0010670 276.6841  83.1606  1.86231955 19845
BEIDOU-3 M18 (C37)      
1 43707U 18093B   21292.35478487 -.00000045  00000-0  00000-0 0  9994
2 43707  54.4390 240.2045 0009822 296.3153 277.8194  1.86232156 19838
BEIDOU-3 IGSO-1 (C38)   
1 44204U 19023A   21292.61489097 -.00000221  00000-0  00000-0 0  9995
2 44204  56.2052  55.5719 0023123 186.5967 126.3292  1.00283828  9298
BEIDOU-2 G8             
1 44231U 19027A   21292.61299398 -.00000253  00000-0  00000-0 0  9997
2 44231   0.3409  45.9441 0007503 154.8151 192.7502  1.00274355  9012
BEIDOU-3 IGSO-2 (C39)   
1 44337U 19035A   21292.61867685 -.00000110  00000-0  00000-0 0  9995
2 44337  55.0954 173.8789 0020292 180.3248  16.4769  1.00274637  8635
BEIDOU-3 M23 (C45)      
1 44542U 19061A   21292.49296784 -.00000044  00000-0  10000-3 0  9994
2 44542  54.6644 240.3033 0009338 323.7878 295.6353  1.86231545 14098
BEIDOU-3 M24 (C46)      
1 44543U 19061B   21292.33160767 -.00000045  00000-0  10000-3 0  9990
2 44543  54.6618 240.2777 0006815 310.9815 111.2642  1.86231811 14090
BEIDOU-3 IGSO-3         
1 44709U 19073A   21292.53447785 -.00000169  00000-0  00000-0 0  9990
2 44709  57.6480 298.8776 0020100 186.6616 215.1169  1.00279775  7392
BEIDOU-3 M21            
1 44793U 19078A   21292.40698044 -.00000109  00000-0  10000-3 0  9998
2 44793  55.0374 358.9145 0004958   1.1265 305.6952  1.86232320 12953
BEIDOU-3 M22            
1 44794U 19078B   21292.28158109 -.00000109  00000-0  00000-0 0  9994
2 44794  55.0114 358.9156 0003085 354.9211 139.0389  1.86232817 12952
BEIDOU-3 M19            
1 44864U 19090A   21292.42485427  .00000056  00000-0  00000-0 0  9998
2 44864  55.2798 119.6811 0014303 265.5151 159.0970  1.86231941 12545
BEIDOU-3 M20            
1 44865U 19090B   21292.46608060  .00000056  00000-0  00000-0 0  9993
2 44865  55.2822 119.7116 0012681 282.0870 260.0672  1.86231900 12516
BEIDOU-3 G2             
1 45344U 20017A   21292.53193032 -.00000152  00000-0  00000-0 0  9991
2 45344   2.2833 341.2547 0002946 184.9176 133.5728  1.00271281  6190
BEIDOU-3 G3             
1 45807U 20040A   21292.53803560 -.00000364  00000-0  00000-0 0  9990
2 45807   1.9996 299.3082 0009816 338.1998  54.9135  1.00276393  5023
